CTC1_L_00105001-01
1 75744U 26362WY  26037.47802083  .00000000  00000+0  00000-0 0  9995
2 75744  40.0000   0.0000 0000000   0.0000   0.0000 14.33516502    14
CTC1_L_00105001-02
1 75745U 24235AK  26037.47802083  .00000000  00000+0  00000-0 0  9993
2 75745  40.0000   0.0000 0000000   0.0000  90.0000 14.33516502    14
CTC1_L_00105001-03
1 75746U 26856MM  26037.47802083  .00000000  00000+0  00000-0 0  9995
2 75746  40.0000   0.0000 0000000   0.0000 180.0000 14.33516502    15
CTC1_L_00105001-04
1 75747U 22599UK  26037.47802083  .00000000  00000+0  00000-0 0  9996
2 75747  40.0000   0.0000 0000000   0.0000 270.0000 14.33516502    16
CTC1_L_00105002-01
1 75748U 26295CM  26037.47802083  .00000000  00000+0  00000-0 0  9994
2 75748  40.0000  12.0000 0000000   0.0000  12.0000 14.33516502    14
CTC1_L_00105002-02
1 75749U 26526RM  26037.47802083  .00000000  00000+0  00000-0 0  9992
2 75749  40.0000  12.0000 0000000   0.0000 102.0000 14.33516502    15
CTC1_L_00105002-03
1 75750U 26333DI  26037.47802083  .00000000  00000+0  00000-0 0  9990
2 75750  40.0000  12.0000 0000000   0.0000 192.0000 14.33516502    16
CTC1_L_00105002-04
1 75751U 22723YL  26037.47802083  .00000000  00000+0  00000-0 0  9990
2 75751  40.0000  12.0000 0000000   0.0000 282.0000 14.33516502    17
CTC1_L_00105003-01
1 75752U 25076LQ  26037.47802083  .00000000  00000+0  00000-0 0  9995
2 75752  40.0000  24.0000 0000000   0.0000  24.0000 14.33516502    15
CTC1_L_00105003-02
1 75753U 22684HS  26037.47802083  .00000000  00000+0  00000-0 0  9998
2 75753  40.0000  24.0000 0000000   0.0000 114.0000 14.33516502    16
CTC1_L_00105003-03
1 75754U 24480YF  26037.47802083  .00000000  00000+0  00000-0 0  9995
2 75754  40.0000  24.0000 0000000   0.0000 204.0000 14.33516502    17
CTC1_L_00105003-04
1 75755U 24639QR  26037.47802083  .00000000  00000+0  00000-0 0  9992
2 75755  40.0000  24.0000 0000000   0.0000 294.0000 14.33516502    17
CTC1_L_00105004-01
1 75756U 25627AD  26037.47802083  .00000000  00000+0  00000-0 0  9991
2 75756  40.0000  36.0000 0000000   0.0000  36.0000 14.33516502    15
CTC1_L_00105004-02
1 75757U 22019SK  26037.47802083  .00000000  00000+0  00000-0 0  9994
2 75757  40.0000  36.0000 0000000   0.0000 126.0000 14.33516502    16
CTC1_L_00105004-03
1 75758U 25641BK  26037.47802083  .00000000  00000+0  00000-0 0  9999
2 75758  40.0000  36.0000 0000000   0.0000 216.0000 14.33516502    17
CTC1_L_00105004-04
1 75759U 24381FN  26037.47802083  .00000000  00000+0  00000-0 0  9990
2 75759  40.0000  36.0000 0000000   0.0000 306.0000 14.33516502    18
CTC1_L_00105005-01
1 75760U 26375WP  26037.47802083  .00000000  00000+0  00000-0 0  9997
2 75760  40.0000  48.0000 0000000   0.0000  48.0000 14.33516502    16
CTC1_L_00105005-02
1 75761U 22576TM  26037.47802083  .00000000  00000+0  00000-0 0  9997
2 75761  40.0000  48.0000 0000000   0.0000 138.0000 14.33516502    17
CTC1_L_00105005-03
1 75762U 23255SS  26037.47802083  .00000000  00000+0  00000-0 0  9993
2 75762  40.0000  48.0000 0000000   0.0000 228.0000 14.33516502    18
CTC1_L_00105005-04
1 75763U 23824KG  26037.47802083  .00000000  00000+0  00000-0 0  9996
2 75763  40.0000  48.0000 0000000   0.0000 318.0000 14.33516502    19
CTC1_L_00105006-01
1 75764U 25507KL  26037.47802083  .00000000  00000+0  00000-0 0  9997
2 75764  40.0000  60.0000 0000000   0.0000  60.0000 14.33516502    18
CTC1_L_00105006-02
1 75765U 22129MA  26037.47802083  .00000000  00000+0  00000-0 0  9995
2 75765  40.0000  60.0000 0000000   0.0000 150.0000 14.33516502    19
CTC1_L_00105006-03
1 75766U 22048KW  26037.47802083  .00000000  00000+0  00000-0 0  9996
2 75766  40.0000  60.0000 0000000   0.0000 240.0000 14.33516502    10
CTC1_L_00105006-04
1 75767U 23268RU  26037.47802083  .00000000  00000+0  00000-0 0  9992
2 75767  40.0000  60.0000 0000000   0.0000 330.0000 14.33516502    11
CTC1_L_00105007-01
1 75768U 25423J   26037.47802083  .00000000  00000+0  00000-0 0  9998
2 75768  40.0000  72.0000 0000000   0.0000  72.0000 14.33516502    18
CTC1_L_00105007-02
1 75769U 25956RK  26037.47802083  .00000000  00000+0  00000-0 0  9990
2 75769  40.0000  72.0000 0000000   0.0000 162.0000 14.33516502    19
CTC1_L_00105007-03
1 75770U 22141WA  26037.47802083  .00000000  00000+0  00000-0 0  9995
2 75770  40.0000  72.0000 0000000   0.0000 252.0000 14.33516502    11
CTC1_L_00105007-04
1 75771U 24889FM  26037.47802083  .00000000  00000+0  00000-0 0  9997
2 75771  40.0000  72.0000 0000000   0.0000 342.0000 14.33516502    12
CTC1_L_00105008-01
1 75772U 22224OO  26037.47802083  .00000000  00000+0  00000-0 0  9999
2 75772  40.0000  84.0000 0000000   0.0000  84.0000 14.33516502    19
CTC1_L_00105008-02
1 75773U 26257MJ  26037.47802083  .00000000  00000+0  00000-0 0  9990
2 75773  40.0000  84.0000 0000000   0.0000 174.0000 14.33516502    10
CTC1_L_00105008-03
1 75774U 25567XN  26037.47802083  .00000000  00000+0  00000-0 0  9994
2 75774  40.0000  84.0000 0000000   0.0000 264.0000 14.33516502    11
CTC1_L_00105008-04
1 75775U 25853AK  26037.47802083  .00000000  00000+0  00000-0 0  9993
2 75775  40.0000  84.0000 0000000   0.0000 354.0000 14.33516502    12
CTC1_L_00105009-01
1 75776U 24432MC  26037.47802083  .00000000  00000+0  00000-0 0  9996
2 75776  40.0000  96.0000 0000000   0.0000  96.0000 14.33516502    19
CTC1_L_00105009-02
1 75777U 25892VG  26037.47802083  .00000000  00000+0  00000-0 0  9998
2 75777  40.0000  96.0000 0000000   0.0000 186.0000 14.33516502    10
CTC1_L_00105009-03
1 75778U 25220RZ  26037.47802083  .00000000  00000+0  00000-0 0  9994
2 75778  40.0000  96.0000 0000000   0.0000 276.0000 14.33516502    11
CTC1_L_00105009-04
1 75779U 25383DN  26037.47802083  .00000000  00000+0  00000-0 0  9995
2 75779  40.0000  96.0000 0000000   0.0000   6.0000 14.33516502    13
CTC1_L_00105010-01
1 75780U 26899ZG  26037.47802083  .00000000  00000+0  00000-0 0  9990
2 75780  40.0000 108.0000 0000000   0.0000 108.0000 14.33516502    12
CTC1_L_00105010-02
1 75781U 22132BA  26037.47802083  .00000000  00000+0  00000-0 0  9997
2 75781  40.0000 108.0000 0000000   0.0000 198.0000 14.33516502    12
CTC1_L_00105010-03
1 75782U 26247WN  26037.47802083  .00000000  00000+0  00000-0 0  9999
2 75782  40.0000 108.0000 0000000   0.0000 288.0000 14.33516502    13
CTC1_L_00105010-04
1 75783U 22649WG  26037.47802083  .00000000  00000+0  00000-0 0  9992
2 75783  40.0000 108.0000 0000000   0.0000  18.0000 14.33516502    15
CTC1_L_00105011-01
1 75784U 26708VM  26037.47802083  .00000000  00000+0  00000-0 0  9993
2 75784  40.0000 120.0000 0000000   0.0000 120.0000 14.33516502    14
CTC1_L_00105011-02
1 75785U 23974BR  26037.47802083  .00000000  00000+0  00000-0 0  9996
2 75785  40.0000 120.0000 0000000   0.0000 210.0000 14.33516502    15
CTC1_L_00105011-03
1 75786U 24426EF  26037.47802083  .00000000  00000+0  00000-0 0  9990
2 75786  40.0000 120.0000 0000000   0.0000 300.0000 14.33516502    16
CTC1_L_00105011-04
1 75787U 22105JS  26037.47802083  .00000000  00000+0  00000-0 0  9993
2 75787  40.0000 120.0000 0000000   0.0000  30.0000 14.33516502    17
CTC1_L_00105012-01
1 75788U 22443RN  26037.47802083  .00000000  00000+0  00000-0 0  9999
2 75788  40.0000 132.0000 0000000   0.0000 132.0000 14.33516502    14
CTC1_L_00105012-02
1 75789U 25275NG  26037.47802083  .00000000  00000+0  00000-0 0  9996
2 75789  40.0000 132.0000 0000000   0.0000 222.0000 14.33516502    15
CTC1_L_00105012-03
1 75790U 22250MR  26037.47802083  .00000000  00000+0  00000-0 0  9998
2 75790  40.0000 132.0000 0000000   0.0000 312.0000 14.33516502    17
CTC1_L_00105012-04
1 75791U 23662UC  26037.47802083  .00000000  00000+0  00000-0 0  9997
2 75791  40.0000 132.0000 0000000   0.0000  42.0000 14.33516502    18
CTC1_L_00105013-01
1 75792U 25528ZS  26037.47802083  .00000000  00000+0  00000-0 0  9991
2 75792  40.0000 144.0000 0000000   0.0000 144.0000 14.33516502    15
CTC1_L_00105013-02
1 75793U 22588HY  26037.47802083  .00000000  00000+0  00000-0 0  9995
2 75793  40.0000 144.0000 0000000   0.0000 234.0000 14.33516502    16
CTC1_L_00105013-03
1 75794U 25105AE  26037.47802083  .00000000  00000+0  00000-0 0  9994
2 75794  40.0000 144.0000 0000000   0.0000 324.0000 14.33516502    17
CTC1_L_00105013-04
1 75795U 24302WV  26037.47802083  .00000000  00000+0  00000-0 0  9993
2 75795  40.0000 144.0000 0000000   0.0000  54.0000 14.33516502    18
CTC1_L_00105014-01
1 75796U 25962GC  26037.47802083  .00000000  00000+0  00000-0 0  9997
2 75796  40.0000 156.0000 0000000   0.0000 156.0000 14.33516502    15
CTC1_L_00105014-02
1 75797U 26576R   26037.47802083  .00000000  00000+0  00000-0 0  9990
2 75797  40.0000 156.0000 0000000   0.0000 246.0000 14.33516502    16
CTC1_L_00105014-03
1 75798U 24615AH  26037.47802083  .00000000  00000+0  00000-0 0  9993
2 75798  40.0000 156.0000 0000000   0.0000 336.0000 14.33516502    17
CTC1_L_00105014-04
1 75799U 26491KK  26037.47802083  .00000000  00000+0  00000-0 0  9998
2 75799  40.0000 156.0000 0000000   0.0000  66.0000 14.33516502    18
CTC1_L_00105015-01
1 75800U 23604RG  26037.47802083  .00000000  00000+0  00000-0 0  9994
2 75800  40.0000 168.0000 0000000   0.0000 168.0000 14.33516502    17
CTC1_L_00105015-02
1 75801U 23765QZ  26037.47802083  .00000000  00000+0  00000-0 0  9993
2 75801  40.0000 168.0000 0000000   0.0000 258.0000 14.33516502    18
CTC1_L_00105015-03
1 75802U 23030FK  26037.47802083  .00000000  00000+0  00000-0 0  9999
2 75802  40.0000 168.0000 0000000   0.0000 348.0000 14.33516502    19
CTC1_L_00105015-04
1 75803U 23727XK  26037.47802083  .00000000  00000+0  00000-0 0  9993
2 75803  40.0000 168.0000 0000000   0.0000  78.0000 14.33516502    10
CTC1_L_00105016-01
1 75804U 25681HA  26037.47802083  .00000000  00000+0  00000-0 0  9995
2 75804  40.0000 180.0000 0000000   0.0000 180.0000 14.33516502    19
CTC1_L_00105016-02
1 75805U 24527AU  26037.47802083  .00000000  00000+0  00000-0 0  9994
2 75805  40.0000 180.0000 0000000   0.0000 270.0000 14.33516502    10
